IRIDIUM 166             
1 43570U 18061B   23277.55888093  .00000155  00000+0  48129-4 0  9990
2 43570  86.3918 109.1053 0001864  87.2979 272.8430 14.34217123271987
IRIDIUM 158             
1 43571U 18061C   23277.59693196  .00000166  00000+0  52235-4 0  9998
2 43571  86.3918 109.0983 0001924  97.5237 262.6177 14.34217676271952
IRIDIUM 165             
1 43572U 18061D   23277.62230694  .00000157  00000+0  49098-4 0  9996
2 43572  86.3920 109.1155 0001929  98.7460 261.3954 14.34216532271986
IRIDIUM 155             
1 43573U 18061E   23277.79355698  .00000167  00000+0  52407-4 0  9996
2 43573  86.3917 108.9614 0002106  80.4984 279.6450 14.34217122271986
IRIDIUM 154             
1 43574U 18061F   23277.56521843  .00000162  00000+0  50609-4 0  9996
2 43574  86.3921 109.1424 0002329  91.5061 268.6401 14.34216927271997
IRIDIUM 163             
1 43575U 18061G   23277.61594335  .00000165  00000+0  51791-4 0  9995
2 43575  86.3923 109.0679 0002661  99.8288 260.3208 14.34218067271971
IRIDIUM 156             
1 43576U 18061H   23277.79989787  .00000165  00000+0  51925-4 0  9993
2 43576  86.3919 108.9961 0001867  86.6748 273.4661 14.34217590271980
IRIDIUM 164             
1 43577U 18061J   23277.57156470  .00000158  00000+0  49528-4 0  9993
2 43577  86.3919 109.1168 0001983  92.3255 267.8168 14.34216601272004
